start=new Date('2022-11-07T00:00:00.000Z').valueOf();
sats=[{"TLE_LINE2":"2 51890  53.2186  70.9156 0001902  42.0146 318.0991 15.08834789 39238","RA_OF_ASC_NODE":"70.9156","LAUNCH_DATE":"2022-03-03","TIME_SYSTEM":"UTC","APOAPSIS":"541.077","PERIOD":"95.438","EPOCH":"2022-11-06T19:19:42.859488","RCS_SIZE":"LARGE","NORAD_CAT_ID":"51890","ECCENTRICITY":"0.00019020","ELEMENT_SET_NO":"999","OBJECT_TYPE":"PAYLOAD","CLASSIFICATION_TYPE":"U","ARG_OF_PERICENTER":"42.0146","PERIAPSIS":"538.446","MEAN_ELEMENT_THEORY":"SGP4","MEAN_MOTION_DOT":"0.00000133","DECAY_DATE":null,"SITE":"AFETR","INCLINATION":"53.2186","EPHEMERIS_TYPE":"0","REV_AT_EPOCH":"3923","BSTAR":"0.00002648100000","OBJECT_ID":"2022-022AQ","CENTER_NAME":"EARTH","SEMIMAJOR_AXIS":"6917.896","MEAN_MOTION_DDOT":"0.0000000000000","MEAN_MOTION":"15.08834789","GP_ID":"217064243","COUNTRY_CODE":"US","MEAN_ANOMALY":"318.0991","OBJECT_NAME":"STARLINK-3519","FILE":"3647246","TLE_LINE1":"1 51890U 22022AQ  22310.80535717  .00000133  00000-0  26481-4 0  9997","REF_FRAME":"TEME"},{"MEAN_MOTION_DDOT":"0.0000000000000","SEMIMAJOR_AXIS":"6917.897","CENTER_NAME":"EARTH","BSTAR":"0.00004013900000","REV_AT_EPOCH":"3928","OBJECT_ID":"2022-022AR","MEAN_MOTION":"15.08834701","GP_ID":"217064247","MEAN_ANOMALY":"316.5043","COUNTRY_CODE":"US","REF_FRAME":"TEME","TLE_LINE1":"1 51891U 22022AR  22310.79432338  .00000351  00000-0  40139-4 0  9999","FILE":"3647246","OBJECT_NAME":"STARLINK-3549","APOAPSIS":"540.952","TIME_SYSTEM":"UTC","LAUNCH_DATE":"2022-03-03","TLE_LINE2":"2 51891  53.2204  70.9666 0001721  43.6085 316.5043 15.08834701 39284","RA_OF_ASC_NODE":"70.9666","OBJECT_TYPE":"PAYLOAD","NORAD_CAT_ID":"51891","ECCENTRICITY":"0.00017210","ELEMENT_SET_NO":"999","RCS_SIZE":"LARGE","PERIOD":"95.438","EPOCH":"2022-11-06T19:03:49.540032","MEAN_ELEMENT_THEORY":"SGP4","PERIAPSIS":"538.571","CLASSIFICATION_TYPE":"U","ARG_OF_PERICENTER":"43.6085","INCLINATION":"53.2204","EPHEMERIS_TYPE":"0","SITE":"AFETR","DECAY_DATE":null,"MEAN_MOTION_DOT":"0.00000351"},{"ECCENTRICITY":"0.00019300","NORAD_CAT_ID":"51892","ELEMENT_SET_NO":"999","OBJECT_TYPE":"PAYLOAD","PERIOD":"95.438","EPOCH":"2022-11-06T19:14:24.303552","RCS_SIZE":"LARGE","TIME_SYSTEM":"UTC","APOAPSIS":"541.087","TLE_LINE2":"2 51892  53.2194  70.9384 0001930  51.0798 309.0366 15.08837899 39237","RA_OF_ASC_NODE":"70.9384","LAUNCH_DATE":"2022-03-03","SITE":"AFETR","INCLINATION":"53.2194","EPHEMERIS_TYPE":"0","MEAN_MOTION_DOT":"-0.00000060","DECAY_DATE":null,"MEAN_ELEMENT_THEORY":"SGP4","CLASSIFICATION_TYPE":"U","ARG_OF_PERICENTER":"51.0798","PERIAPSIS":"538.417","MEAN_MOTION":"15.08837899","GP_ID":"217064244","SEMIMAJOR_AXIS":"6917.887","MEAN_MOTION_DDOT":"0.0000000000000","BSTAR":"0.00001432100000","REV_AT_EPOCH":"3923","OBJECT_ID":"2022-022AS","CENTER_NAME":"EARTH","FILE":"3647246","TLE_LINE1":"1 51892U 22022AS  22310.80167018 -.00000060  00000-0  14321-4 0  9994","REF_FRAME":"TEME","OBJECT_NAME":"STARLINK-3587","MEAN_ANOMALY":"309.0366","COUNTRY_CODE":"US"},{"GP_ID":"217064240","MEAN_MOTION":"15.08827224","MEAN_MOTION_DDOT":"0.0000000000000","SEMIMAJOR_AXIS":"6917.919","CENTER_NAME":"EARTH","OBJECT_ID":"2022-022AT","BSTAR":"0.00003818100000","REV_AT_EPOCH":"3928","TLE_LINE1":"1 51893U 22022AT  22310.72072016  .00000319  00000-0  38181-4 0  9995","REF_FRAME":"TEME","FILE":"3647246","OBJECT_NAME":"STARLINK-3579","MEAN_ANOMALY":"311.6819","COUNTRY_CODE":"US","OBJECT_TYPE":"PAYLOAD","ECCENTRICITY":"0.00021010","ELEMENT_SET_NO":"999","NORAD_CAT_ID":"51893","RCS_SIZE":"LARGE","EPOCH":"2022-11-06T17:17:50.221824","PERIOD":"95.438","APOAPSIS":"541.238","TIME_SYSTEM":"UTC","LAUNCH_DATE":"2022-03-03","RA_OF_ASC_NODE":"71.2923","TLE_LINE2":"2 51893  53.2195  71.2923 0002101  48.4353 311.6819 15.08827224 39288","EPHEMERIS_TYPE":"0","INCLINATION":"53.2195","SITE":"AFETR","DECAY_DATE":null,"MEAN_MOTION_DOT":"0.00000319","MEAN_ELEMENT_THEORY":"SGP4","PERIAPSIS":"538.331","ARG_OF_PERICENTER":"48.4353","CLASSIFICATION_TYPE":"U"},{"LAUNCH_DATE":"2022-03-03","RA_OF_ASC_NODE":"72.1727","TLE_LINE2":"2 51894  53.2199  72.1727 0001827  44.6445 315.4694 15.08845031 39255","APOAPSIS":"540.994","TIME_SYSTEM":"UTC","RCS_SIZE":"LARGE","PERIOD":"95.437","EPOCH":"2022-11-06T12:36:57.780000","OBJECT_TYPE":"PAYLOAD","ELEMENT_SET_NO":"999","ECCENTRICITY":"0.00018270","NORAD_CAT_ID":"51894","PERIAPSIS":"538.466","ARG_OF_PERICENTER":"44.6445","CLASSIFICATION_TYPE":"U","MEAN_ELEMENT_THEORY":"SGP4","DECAY_DATE":null,"MEAN_MOTION_DOT":"0.00001233","EPHEMERIS_TYPE":"0","INCLINATION":"53.2199","SITE":"AFETR","CENTER_NAME":"EARTH","OBJECT_ID":"2022-022AU","BSTAR":"0.00009554900000","REV_AT_EPOCH":"3925","MEAN_MOTION_DDOT":"0.0000000000000","SEMIMAJOR_AXIS":"6917.865","GP_ID":"217032265","MEAN_MOTION":"15.08845031","COUNTRY_CODE":"US","MEAN_ANOMALY":"315.4694","OBJECT_NAME":"STARLINK-3595","TLE_LINE1":"1 51894U 22022AU  22310.52566875  .00001233  00000-0  95549-4 0  9992","FILE":"3646992","REF_FRAME":"TEME"},{"COUNTRY_CODE":"US","MEAN_ANOMALY":"314.1948","OBJECT_NAME":"STARLINK-3594","FILE":"3647251","TLE_LINE1":"1 51895U 22022AV  22310.84951469  .00001864  00000-0  13519-3 0  9991","REF_FRAME":"TEME","CENTER_NAME":"EARTH","BSTAR":"0.00013519000000","REV_AT_EPOCH":"3924","OBJECT_ID":"2022-022AV","MEAN_MOTION_DDOT":"0.0000000000000","SEMIMAJOR_AXIS":"6917.884","MEAN_MOTION":"15.08838860","GP_ID":"217063932","PERIAPSIS":"538.542","CLASSIFICATION_TYPE":"U","ARG_OF_PERICENTER":"45.9187","MEAN_ELEMENT_THEORY":"SGP4","DECAY_DATE":null,"MEAN_MOTION_DOT":"0.00001864","INCLINATION":"53.2198","EPHEMERIS_TYPE":"0","SITE":"AFETR","LAUNCH_DATE":"2022-03-03","TLE_LINE2":"2 51895  53.2198  70.7100 0001744  45.9187 314.1948 15.08838860 39248","RA_OF_ASC_NODE":"70.7100","APOAPSIS":"540.955","TIME_SYSTEM":"UTC","RCS_SIZE":"LARGE","PERIOD":"95.438","EPOCH":"2022-11-06T20:23:18.069216","OBJECT_TYPE":"PAYLOAD","NORAD_CAT_ID":"51895","ECCENTRICITY":"0.00017440","ELEMENT_SET_NO":"999"},{"MEAN_ANOMALY":"318.7725","COUNTRY_CODE":"US","TLE_LINE1":"1 51896U 22022AW  22310.51926944 -.00000188  00000-0  62941-5 0  9990","REF_FRAME":"TEME","FILE":"3646993","OBJECT_NAME":"STARLINK-3593","SEMIMAJOR_AXIS":"6917.880","MEAN_MOTION_DDOT":"0.0000000000000","CENTER_NAME":"EARTH","BSTAR":"0.00000629410000","REV_AT_EPOCH":"3924","OBJECT_ID":"2022-022AW","MEAN_MOTION":"15.08840188","GP_ID":"217032274","MEAN_ELEMENT_THEORY":"SGP4","PERIAPSIS":"538.486","CLASSIFICATION_TYPE":"U","ARG_OF_PERICENTER":"41.3404","INCLINATION":"53.2189","EPHEMERIS_TYPE":"0","SITE":"AFETR","DECAY_DATE":null,"MEAN_MOTION_DOT":"-0.00000188","APOAPSIS":"541.004","TIME_SYSTEM":"UTC","LAUNCH_DATE":"2022-03-03","TLE_LINE2":"2 51896  53.2189  72.1862 0001820  41.3404 318.7725 15.08840188 39246","RA_OF_ASC_NODE":"72.1862","OBJECT_TYPE":"PAYLOAD","NORAD_CAT_ID":"51896","ECCENTRICITY":"0.00018200","ELEMENT_SET_NO":"999","RCS_SIZE":"LARGE","PERIOD":"95.438","EPOCH":"2022-11-06T12:27:44.879616"},{"MEAN_MOTION_DOT":"0.00000783","DECAY_DATE":null,"SITE":"AFETR","EPHEMERIS_TYPE":"0","INCLINATION":"53.2188","ARG_OF_PERICENTER":"47.0187","CLASSIFICATION_TYPE":"U","PERIAPSIS":"538.607","MEAN_ELEMENT_THEORY":"SGP4","PERIOD":"95.438","EPOCH":"2022-11-06T20:18:00.456768","RCS_SIZE":"LARGE","ELEMENT_SET_NO":"999","NORAD_CAT_ID":"51897","ECCENTRICITY":"0.00016770","OBJECT_TYPE":"PAYLOAD","RA_OF_ASC_NODE":"70.7362","TLE_LINE2":"2 51897  53.2188  70.7362 0001677  47.0187 313.0946 15.08832912 39245","LAUNCH_DATE":"2022-03-03","TIME_SYSTEM":"UTC","APOAPSIS":"540.927","OBJECT_NAME":"STARLINK-3598","TLE_LINE1":"1 51897U 22022AX  22310.84583862  .00000783  00000-0  67277-4 0  9991","FILE":"3647299","REF_FRAME":"TEME","COUNTRY_CODE":"US","MEAN_ANOMALY":"313.0946","GP_ID":"217065245","MEAN_MOTION":"15.08832912","OBJECT_ID":"2022-022AX","REV_AT_EPOCH":"3924","BSTAR":"0.00006727700000","CENTER_NAME":"EARTH","SEMIMAJOR_AXIS":"6917.902","MEAN_MOTION_DDOT":"0.0000000000000"},{"MEAN_MOTION_DOT":"0.00001294","DECAY_DATE":null,"SITE":"AFETR","INCLINATION":"53.2205","EPHEMERIS_TYPE":"0","CLASSIFICATION_TYPE":"U","ARG_OF_PERICENTER":"38.8634","PERIAPSIS":"538.726","MEAN_ELEMENT_THEORY":"SGP4","PERIOD":"95.438","EPOCH":"2022-11-06T20:12:41.957856","RCS_SIZE":"LARGE","NORAD_CAT_ID":"51898","ECCENTRICITY":"0.00014940","ELEMENT_SET_NO":"999","OBJECT_TYPE":"PAYLOAD","TLE_LINE2":"2 51898  53.2205  70.7498 0001494  38.8634 321.2465 15.08835216 39290","RA_OF_ASC_NODE":"70.7498","LAUNCH_DATE":"2022-03-03","TIME_SYSTEM":"UTC","APOAPSIS":"540.794","OBJECT_NAME":"STARLINK-3597","TLE_LINE1":"1 51898U 22022AY  22310.84215229  .00001294  00000-0  99422-4 0  9996","FILE":"3647251","REF_FRAME":"TEME","COUNTRY_CODE":"US","MEAN_ANOMALY":"321.2465","MEAN_MOTION":"15.08835216","GP_ID":"217064257","REV_AT_EPOCH":"3929","BSTAR":"0.00009942200000","OBJECT_ID":"2022-022AY","CENTER_NAME":"EARTH","SEMIMAJOR_AXIS":"6917.895","MEAN_MOTION_DDOT":"0.0000000000000"},{"COUNTRY_CODE":"US","MEAN_ANOMALY":"311.7433","OBJECT_NAME":"STARLINK-3700","TLE_LINE1":"1 51956U 22025A   22310.86515692 -.00000430  00000-0 -88937-5 0  9996","REF_FRAME":"TEME","FILE":"3647299","CENTER_NAME":"EARTH","OBJECT_ID":"2022-025A","BSTAR":"-0.00000889370000","REV_AT_EPOCH":"3828","MEAN_MOTION_DDOT":"0.0000000000000","SEMIMAJOR_AXIS":"6917.901","GP_ID":"217065242","MEAN_MOTION":"15.08833350","PERIAPSIS":"538.467","ARG_OF_PERICENTER":"48.3720","CLASSIFICATION_TYPE":"U","MEAN_ELEMENT_THEORY":"SGP4","DECAY_DATE":null,"MEAN_MOTION_DOT":"-0.00000430","EPHEMERIS_TYPE":"0","INCLINATION":"53.2176","SITE":"AFETR","LAUNCH_DATE":"2022-03-09","RA_OF_ASC_NODE":"100.6397","TLE_LINE2":"2 51956  53.2176 100.6397 0001877  48.3720 311.7433 15.08833350 38284","APOAPSIS":"541.064","TIME_SYSTEM":"UTC","RCS_SIZE":"LARGE","PERIOD":"95.438","EPOCH":"2022-11-06T20:45:49.557888","OBJECT_TYPE":"PAYLOAD","ECCENTRICITY":"0.00018770","ELEMENT_SET_NO":"999","NORAD_CAT_ID":"51956"}];
